{"type": "FeatureCollection", "features": [ {"type": "Feature", "properties": {"norad_id": 65943, "name": "E-KAGAKU-1", "group": "stations", "lat": 9.891272475721419, "lon": -28.657104306063605, "alt_km": 388.6544987293337, "timestamp": "2025-12-08T21:31:03.464560+00:00", "meta": {"OBJECT_NAME": "E-KAGAKU-1", "OBJECT_ID": "1998-067XQ", "EPOCH": "2025-12-07T18:38:39.521184", "MEAN_MOTION": 15.58562644, "ECCENTRICITY": 0.00029586, "INCLINATION": 51.6295, "RA_OF_ASC_NODE": 164.9078, "ARG_OF_PERICENTER": 173.7443, "MEAN_ANOMALY": 186.3587, "EPHEMERIS_TYPE": 0, "CLASSIFICATION_TYPE": "U", "NORAD_CAT_ID": 65943, "ELEMENT_SET_NO": 999, "REV_AT_EPOCH": 908, "BSTAR": 0.0011280115, "MEAN_MOTION_DOT": 0.00088516, "MEAN_MOTION_DDOT": 0}, "tle": {"line1": "1 65943U 98067XQ  25341.77684631  .00088516  00000+0  11280-2 0  9995", "line2": "2 65943  51.6295 164.9078 0002958 173.7443 186.3587 15.58562644  9086"}}, "geometry": {"type": "Point", "coordinates": [-28.657104306063605, 9.891272475721419]}}, {"type": "Feature", "properties": {"norad_id": 66052, "name": "HRC MONOBLOCK CAMERA", "group": "stations", "lat": -31.988239088564278, "lon": 10.325415887814591, "alt_km": 408.05394765868823, "timestamp": "2025-12-08T21:31:03.464570+00:00", "meta": {"OBJECT_NAME": "HRC MONOBLOCK CAMERA", "OBJECT_ID": "1998-067XR", "EPOCH": "2025-12-08T12:50:46.242816", "MEAN_MOTION": 15.53711027, "ECCENTRICITY": 0.00039304, "INCLINATION": 51.6285, "RA_OF_ASC_NODE": 162.4643, "ARG_OF_PERICENTER": 166.8031, "MEAN_ANOMALY": 193.3063, "EPHEMERIS_TYPE": 0, "CLASSIFICATION_TYPE": "U", "NORAD_CAT_ID": 66052, "ELEMENT_SET_NO": 999, "REV_AT_EPOCH": 818, "BSTAR": 0.00061066851, "MEAN_MOTION_DOT": 0.00039544, "MEAN_MOTION_DDOT": 0}, "tle": {"line1": "1 66052U 98067XR  25342.53525744  .00039544  00000+0  61067-3 0  9997", "line2": "2 66052  51.6285 162.4643 0003930 166.8031 193.3063 15.53711027  8188"}}, "geometry": {"type": "Point", "coordinates": [10.325415887814591, -31.988239088564278]}}, {"type": "Feature", "properties": {"norad_id": 66174, "name": "HTV-X1", "group": "stations", "lat": 2.333509916315342, "lon": -20.34269541505711, "alt_km": 417.19692507192394, "timestamp": "2025-12-08T21:31:03.464580+00:00", "meta": {"OBJECT_NAME": "HTV-X1", "OBJECT_ID": "2025-241A", "EPOCH": "2025-12-08T13:01:02.621280", "MEAN_MOTION": 15.49420853, "ECCENTRICITY": 0.00033936, "INCLINATION": 51.6307, "RA_OF_ASC_NODE": 163.2617, "ARG_OF_PERICENTER": 220.7658, "MEAN_ANOMALY": 139.3077, "EPHEMERIS_TYPE": 0, "CLASSIFICATION_TYPE": "U", "NORAD_CAT_ID": 66174, "ELEMENT_SET_NO": 999, "REV_AT_EPOCH": 51, "BSTAR": 0.00023027995, "MEAN_MOTION_DOT": 0.00012445, "MEAN_MOTION_DDOT": 0}, "tle": {"line1": "1 66174U 25241A   25342.54239145  .00012445  00000+0  23028-3 0  9990", "line2": "2 66174  51.6307 163.2617 0003393 220.7658 139.3077 15.49420853   519"}}, "geometry": {"type": "Point", "coordinates": [-20.34269541505711, 2.333509916315342]}}, {"type": "Feature", "properties": {"norad_id": 66515, "name": "SZ-21 MODULE", "group": "stations", "lat": 3.6025881318176847, "lon": 43.57202733035914, "alt_km": 382.8753336604059, "timestamp": "2025-12-08T21:31:03.464590+00:00", "meta": {"OBJECT_NAME": "SZ-21 MODULE", "OBJECT_ID": "2025-246C", "EPOCH": "2025-12-08T12:17:19.006656", "MEAN_MOTION": 15.62178331, "ECCENTRICITY": 0.00062383, "INCLINATION": 41.4773, "RA_OF_ASC_NODE": 41.8306, "ARG_OF_PERICENTER": 236.9164, "MEAN_ANOMALY": 123.1077, "EPHEMERIS_TYPE": 0, "CLASSIFICATION_TYPE": "U", "NORAD_CAT_ID": 66515, "ELEMENT_SET_NO": 999, "REV_AT_EPOCH": 378, "BSTAR": 0.00033876447, "MEAN_MOTION_DOT": 0.00030446, "MEAN_MOTION_DDOT": 0}, "tle": {"line1": "1 66515U 25246C   25342.51202554  .00030446  00000+0  33876-3 0  9998", "line2": "2 66515  41.4773  41.8306 0006238 236.9164 123.1077 15.62178331  3789"}}, "geometry": {"type": "Point", "coordinates": [43.57202733035914, 3.6025881318176847]}}, {"type": "Feature", "properties": {"norad_id": 66645, "name": "SHENZHOU-22", "group": "stations", "lat": 23.522685128276066, "lon": -169.49636216261916, "alt_km": 391.82972583584706, "timestamp": "2025-12-08T21:31:03.464601+00:00", "meta": {"OBJECT_NAME": "SHENZHOU-22", "OBJECT_ID": "2025-272A", "EPOCH": "2025-12-08T14:45:28.776096", "MEAN_MOTION": 15.58905517, "ECCENTRICITY": 0.00091311, "INCLINATION": 41.4682, "RA_OF_ASC_NODE": 41.7451, "ARG_OF_PERICENTER": 357.4459, "MEAN_ANOMALY": 2.6332, "EPHEMERIS_TYPE": 0, "CLASSIFICATION_TYPE": "U", "NORAD_CAT_ID": 66645, "ELEMENT_SET_NO": 999, "REV_AT_EPOCH": 26300, "BSTAR": 0.0003572809, "MEAN_MOTION_DOT": 0.0002832, "MEAN_MOTION_DDOT": 0}, "tle": {"line1": "1 66645U 25272A   25342.61491639  .00028320  00000+0  35728-3 0  9992", "line2": "2 66645  41.4682  41.7451 0009131 357.4459   2.6332 15.58905517263000"}}, "geometry": {"type": "Point", "coordinates": [-169.49636216261916, 23.522685128276066]}}, {"type": "Feature", "properties": {"norad_id": 66664, "name": "SOYUZ-MS 28", "group": "stations", "lat": 2.3335068775725265, "lon": -20.342693005692094, "alt_km": 417.19692537156425, "timestamp": "2025-12-08T21:31:03.464640+00:00", "meta": {"OBJECT_NAME": "SOYUZ-MS 28", "OBJECT_ID": "2025-275A", "EPOCH": "2025-12-08T13:01:02.621280", "MEAN_MOTION": 15.49420853, "ECCENTRICITY": 0.00033936, "INCLINATION": 51.6307, "RA_OF_ASC_NODE": 163.2617, "ARG_OF_PERICENTER": 220.7658, "MEAN_ANOMALY": 139.3077, "EPHEMERIS_TYPE": 0, "CLASSIFICATION_TYPE": "U", "NORAD_CAT_ID": 66664, "ELEMENT_SET_NO": 999, "REV_AT_EPOCH": 128, "BSTAR": 0.00023027995, "MEAN_MOTION_DOT": 0.00012445, "MEAN_MOTION_DDOT": 0}, "tle": {"line1": "1 66664U 25275A   25342.54239145  .00012445  00000+0  23028-3 0  9991", "line2": "2 66664  51.6307 163.2617 0003393 220.7658 139.3077 15.49420853  1288"}}, "geometry": {"type": "Point", "coordinates": [-20.342693005692094, 2.3335068775725265]}}, {"type": "Feature", "properties": {"norad_id": 66906, "name": "1998-067XS", "group": "stations", "lat": -10.71667195901991, "lon": -9.902971893087487, "alt_km": 415.21897174477635, "timestamp": "2025-12-08T21:31:03.464664+00:00", "meta": {"OBJECT_NAME": "1998-067XS", "OBJECT_ID": "1998-067XS", "EPOCH": "2025-12-08T12:57:01.602432", "MEAN_MOTION": 15.50249516, "ECCENTRICITY": 0.000407, "INCLINATION": 51.6299, "RA_OF_ASC_NODE": 163.2435, "ARG_OF_PERICENTER": 183.7827, "MEAN_ANOMALY": 176.3132, "EPHEMERIS_TYPE": 0, "CLASSIFICATION_TYPE": "U", "NORAD_CAT_ID": 66906, "ELEMENT_SET_NO": 999, "REV_AT_EPOCH": 96, "BSTAR": 0.00052843815, "MEAN_MOTION_DOT": 0.0003009, "MEAN_MOTION_DDOT": 0}, "tle": {"line1": "1 66906U 98067XS  25342.53960188  .00030090  00000+0  52844-3 0  9990", "line2": "2 66906  51.6299 163.2435 0004070 183.7827 176.3132 15.50249516   968"}}, "geometry": {"type": "Point", "coordinates": [-9.902971893087487, -10.71667195901991]}}, {"type": "Feature", "properties": {"norad_id": 66907, "name": "1998-067XT", "group": "stations", "lat": -15.12755039651136, "lon": -6.170482702194261, "alt_km": 413.58539075661974, "timestamp": "2025-12-08T21:31:03.464682+00:00", "meta": {"OBJECT_NAME": "1998-067XT", "OBJECT_ID": "1998-067XT", "EPOCH": "2025-12-08T12:55:42.371040", "MEAN_MOTION": 15.507285, "ECCENTRICITY": 0.00049427, "INCLINATION": 51.6299, "RA_OF_ASC_NODE": 163.2377, "ARG_OF_PERICENTER": 202.7949, "MEAN_ANOMALY": 157.2822, "EPHEMERIS_TYPE": 0, "CLASSIFICATION_TYPE": "U", "NORAD_CAT_ID": 66907, "ELEMENT_SET_NO": 999, "REV_AT_EPOCH": 96, "BSTAR": 0.00115984, "MEAN_MOTION_DOT": 0.00068077, "MEAN_MOTION_DDOT": 0}, "tle": {"line1": "1 66907U 98067XT  25342.53868485  .00068077  00000+0  11598-2 0  9994", "line2": "2 66907  51.6299 163.2377 0004942 202.7949 157.2822 15.50728500   968"}}, "geometry": {"type": "Point", "coordinates": [-6.170482702194261, -15.12755039651136]}}, {"type": "Feature", "properties": {"norad_id": 66908, "name": "1998-067XU", "group": "stations", "lat": -15.922051974162063, "lon": -5.477273864602655, "alt_km": 413.41354283644705, "timestamp": "2025-12-08T21:31:03.464701+00:00", "meta": {"OBJECT_NAME": "1998-067XU", "OBJECT_ID": "1998-067XU", "EPOCH": "2025-12-08T14:28:14.784096", "MEAN_MOTION": 15.5077485, "ECCENTRICITY": 0.00051439, "INCLINATION": 51.6294, "RA_OF_ASC_NODE": 162.9167, "ARG_OF_PERICENTER": 202.1704, "MEAN_ANOMALY": 157.9063, "EPHEMERIS_TYPE": 0, "CLASSIFICATION_TYPE": "U", "NORAD_CAT_ID": 66908, "ELEMENT_SET_NO": 999, "REV_AT_EPOCH": 97, "BSTAR": 0.0010998986, "MEAN_MOTION_DOT": 0.00064615, "MEAN_MOTION_DDOT": 0}, "tle": {"line1": "1 66908U 98067XU  25342.60294889  .00064615  00000+0  10999-2 0  9992", "line2": "2 66908  51.6294 162.9167 0005143 202.1704 157.9063 15.50774850   978"}}, "geometry": {"type": "Point", "coordinates": [-5.477273864602655, -15.922051974162063]}}, {"type": "Feature", "properties": {"norad_id": 66909, "name": "SILVERSAT", "group": "stations", "lat": -16.457976632276708, "lon": -5.00569939219497, "alt_km": 413.3140569738407, "timestamp": "2025-12-08T21:31:03.464716+00:00", "meta": {"OBJECT_NAME": "SILVERSAT", "OBJECT_ID": "1998-067XV", "EPOCH": "2025-12-08T12:55:17.890464", "MEAN_MOTION": 15.50849748, "ECCENTRICITY": 0.00049826, "INCLINATION": 51.6295, "RA_OF_ASC_NODE": 163.2358, "ARG_OF_PERICENTER": 203.4161, "MEAN_ANOMALY": 156.6602, "EPHEMERIS_TYPE": 0, "CLASSIFICATION_TYPE": "U", "NORAD_CAT_ID": 66909, "ELEMENT_SET_NO": 999, "REV_AT_EPOCH": 96, "BSTAR": 0.001262733, "MEAN_MOTION_DOT": 0.00074541, "MEAN_MOTION_DDOT": 0}, "tle": {"line1": "1 66909U 98067XV  25342.53840151  .00074541  00000+0  12627-2 0  9993", "line2": "2 66909  51.6295 163.2358 0004982 203.4161 156.6602 15.50849748   960"}}, "geometry": {"type": "Point", "coordinates": [-5.00569939219497, -16.457976632276708]}}]}